{"fetched_at":"2026-03-29T16:36:15Z","count":15609,"tles":[{"name":"STARLINK-3542","line1":"1 51852U 22022A   26087.86358901  .00000896  00000+0  74350-4 0  9997","line2":"2 51852  53.2178 293.0475 0001412  95.2979 264.8174 15.08840488224655","category":"Starlink"}]}